{
    "CCSDS_OMM_VERS": "3.0",
    "COMMENT": "GENERATED VIA SPACE-TRACK.ORG API",
    "CREATION_DATE": "2025-11-22T22:56:46",
    "ORIGINATOR": "18 SPCS",
    "OBJECT_NAME": "GALILEO 17 (26D)",
    "OBJECT_ID": "2016-069C",
    "CENTER_NAME": "EARTH",
    "REF_FRAME": "TEME",
    "TIME_SYSTEM": "UTC",
    "MEAN_ELEMENT_THEORY": "SGP4",
    "EPOCH": "2025-11-22T11:44:38.962176",
    "MEAN_MOTION": "1.70474852",
    "ECCENTRICITY": "0.00018470",
    "INCLINATION": "55.3698",
    "RA_OF_ASC_NODE": "106.8141",
    "ARG_OF_PERICENTER": "284.8876",
    "MEAN_ANOMALY": "75.0549",
    "EPHEMERIS_TYPE": "0",
    "CLASSIFICATION_TYPE": "U",
    "NORAD_CAT_ID": "41861",
    "ELEMENT_SET_NO": "999",
    "REV_AT_EPOCH": "5599",
    "BSTAR": "0.00000000000000",
    "MEAN_MOTION_DOT": "0.00000034",
    "MEAN_MOTION_DDOT": "0.0000000000000",
    "SEMIMAJOR_AXIS": "29600.221",
    "PERIOD": "844.699",
    "APOAPSIS": "23227.554",
    "PERIAPSIS": "23216.619",
    "OBJECT_TYPE": "PAYLOAD",
    "RCS_SIZE": "LARGE",
    "COUNTRY_CODE": "ESA",
    "LAUNCH_DATE": "2016-11-17",
    "SITE": "FRGUI",
    "DECAY_DATE": null,
    "FILE": "4894435",
    "GP_ID": "303272319",
    "TLE_LINE0": "0 GALILEO 17 (26D)",
    "TLE_LINE1": "1 41861U 16069C   25326.48933984  .00000034  00000-0  00000+0 0  9994",
    "TLE_LINE2": "2 41861  55.3698 106.8141 0001847 284.8876  75.0549  1.70474852 55998"
}